NORAD_CAT_ID,OBJECT_NAME,OBJECT_TYPE,EPOCH,MEAN_MOTION,ECCENTRICITY,INCLINATION,RA_OF_ASC_NODE,ARG_OF_PERICENTER,MEAN_ANOMALY,BSTAR,MEAN_MOTION_DOT,MEAN_MOTION_DDOT,TLE_LINE0,TLE_LINE1,TLE_LINE2,SEMIMAJOR_AXIS,PERIOD,APOGEE,PERIGEE,DECAYED
55413.0,STARLINK-5060,PAYLOAD,2024-01-16 02:32:32,14.98327882,0.0002778,69.9992,259.9574,261.669,98.4155,-4.9599e-05,-6.85e-06,0.0,0 STARLINK-5060,1 55413U 23014Y   24016.10593671 -.00000685  00000-0 -49599-4 0  9994,2 55413  69.9992 259.9574 0002778 261.6690  98.4155 14.98327882 53258,6950.199,96.107,573.995,570.134,0.0
55413.0,STARLINK-5060,PAYLOAD,2024-01-16 21:46:09,14.98330156,0.0003142,69.9991,257.9365,272.6627,87.4172,5.5702e-05,5.72e-06,0.0,0 STARLINK-5060,1 55413U 23014Y   24016.90705283  .00000572  00000-0  55702-4 0  9992,2 55413  69.9991 257.9365 0003142 272.6627  87.4172 14.98330156 54314,6950.192,96.107,574.241,569.874,0.0
55413.0,STARLINK-5060,PAYLOAD,2024-01-17 00:58:25,14.98333814,0.0002964,69.9991,257.5998,271.2588,88.8231,7.055e-05,7.49e-06,0.0,0 STARLINK-5060,1 55413U 23014Y   24017.04056990  .00000749  00000-0  70550-4 0  9996,2 55413  69.9991 257.5998 0002964 271.2588  88.8231 14.98333814 53396,6950.181,96.107,574.106,569.986,0.0
55413.0,STARLINK-5060,PAYLOAD,2024-01-17 20:12:02,14.98325886,0.0002809,69.9989,255.5799,269.7014,90.3823,7.1961e-05,7.66e-06,0.0,0 STARLINK-5060,1 55413U 23014Y   24017.84169433  .00000766  00000-0  71961-4 0  9997,2 55413  69.9989 255.5799 0002809 269.7014  90.3823 14.98325886 53513,6950.206,96.107,574.023,570.118,0.0
55413.0,STARLINK-5060,PAYLOAD,2024-01-17 21:48:10,14.98325686,0.0002811,69.9988,255.4115,269.5898,90.4939,6.7839e-05,7.16e-06,0.0,0 STARLINK-5060,1 55413U 23014Y   24017.90845467  .00000716  00000-0  67839-4 0  9996,2 55413  69.9988 255.4115 0002811 269.5898  90.4939 14.98325686 54466,6950.206,96.107,574.025,570.118,0.0
55413.0,STARLINK-5060,PAYLOAD,2024-01-18 02:36:34,14.98326903,0.000279,69.9988,254.9065,268.819,91.2649,7.7713e-05,8.34e-06,0.0,0 STARLINK-5060,1 55413U 23014Y   24018.10873400  .00000834  00000-0  77713-4 0  9990,2 55413  69.9988 254.9065 0002790 268.8190  91.2649 14.98326903 54490,6950.202,96.107,574.007,570.128,0.0
55413.0,STARLINK-5060,PAYLOAD,2024-01-18 20:14:03,14.98333775,0.0002922,69.9983,253.0541,267.9208,92.1617,-6.4013e-06,-1.69e-06,0.0,0 STARLINK-5060,1 55413U 23014Y   24018.84309167 -.00000169  00000-0 -64013-5 0  9998,2 55413  69.9983 253.0541 0002922 267.9208  92.1617 14.98333775 53669,6950.181,96.107,574.077,570.015,0.0
55413.0,STARLINK-5060,PAYLOAD,2024-01-18 21:50:09,14.98351113,0.0002896,69.9984,252.8862,262.1401,97.9429,0.00019246,2.205e-05,0.0,0 STARLINK-5060,1 55413U 23014Y   24018.90983477  .00002205  00000-0  19246-3 0  9994,2 55413  69.9984 252.8862 0002896 262.1401  97.9429 14.98351113 54611,6950.128,96.106,574.005,569.98,0.0
55413.0,STARLINK-5060,PAYLOAD,2024-01-19 01:02:25,14.98357428,0.0002914,69.9981,252.5484,262.1262,97.9566,0.00025303,2.929e-05,0.0,0 STARLINK-5060,1 55413U 23014Y   24019.04334690  .00002929  00000-0  25303-3 0  9991,2 55413  69.9981 252.5484 0002914 262.1262  97.9566 14.98357428 53695,6950.108,96.105,573.998,569.948,0.0
55413.0,STARLINK-5060,PAYLOAD,2024-01-19 20:16:04,14.98326156,0.0002867,69.999,250.5322,267.0958,92.9873,-4.8832e-05,-6.76e-06,0.0,0 STARLINK-5060,1 55413U 23014Y   24019.84449202 -.00000676  00000-0 -48832-4 0  9997,2 55413  69.9990 250.5322 0002867 267.0958  92.9873 14.98326156 53811,6950.205,96.107,574.062,570.077,0.0
55413.0,STARLINK-5060,PAYLOAD,2024-01-19 21:52:12,14.98325636,0.0002871,69.9989,250.3637,267.2059,92.8772,-5.4349e-05,-7.41e-06,0.0,0 STARLINK-5060,1 55413U 23014Y   24019.91125256 -.00000741  00000-0 -54349-4 0  9998,2 55413  69.9989 250.3637 0002871 267.2059  92.8772 14.98325636 54769,6950.206,96.107,574.067,570.076,0.0
55413.0,STARLINK-5060,PAYLOAD,2024-01-20 01:04:28,14.98322961,0.0003014,69.9982,250.0254,271.3848,88.6966,-8.7331e-05,-1.135e-05,0.0,0 STARLINK-5060,1 55413U 23014Y   24020.04477567 -.00001135  00000-0 -87331-4 0  9994,2 55413  69.9982 250.0254 0003014 271.3848  88.6966 14.98322961 54784,6950.215,96.107,574.174,569.985,0.0
55413.0,STARLINK-5060,PAYLOAD,2024-01-20 21:54:12,14.98339889,0.0002982,69.9979,247.8376,267.9054,92.1764,-0.00017747,-2.21e-05,0.0,0 STARLINK-5060,1 55413U 23014Y   24020.91264972 -.00002210  00000-0 -17747-3 0  9992,2 55413  69.9979 247.8376 0002982 267.9054  92.1764 14.98339889 54910,6950.162,96.106,574.1,569.955,0.0
55413.0,STARLINK-5060,PAYLOAD,2024-01-21 01:06:28,14.98342915,0.0003049,69.9977,247.5006,270.3448,89.7362,-0.00015059,-1.89e-05,0.0,0 STARLINK-5060,1 55413U 23014Y   24021.04616623 -.00001890  00000-0 -15059-3 0  9998,2 55413  69.9977 247.5006 0003049 270.3448  89.7362 14.98342915 53992,6950.153,96.106,574.137,569.899,0.0
55413.0,STARLINK-5060,PAYLOAD,2024-01-21 13:55:33,14.98323583,0.0002828,69.9982,246.1528,276.9372,83.1465,0.00013571,1.526e-05,0.0,0 STARLINK-5060,1 55413U 23014Y   24021.58024999  .00001526  00000-0  13571-3 0  9997,2 55413  69.9982 246.1528 0002828 276.9372  83.1465 14.98323583 54076,6950.213,96.107,574.043,570.112,0.0
55413.0,STARLINK-5060,PAYLOAD,2024-01-21 21:56:13,14.98327493,0.000278,69.9983,245.3116,276.1687,83.9155,0.0001657,1.884e-05,0.0,0 STARLINK-5060,1 55413U 23014Y   24021.91404762  .00001884  00000-0  16570-3 0  9993,2 55413  69.9983 245.3116 0002780 276.1687  83.9155 14.98327493 55067,6950.201,96.107,573.998,570.133,0.0
55413.0,STARLINK-5060,PAYLOAD,2024-01-22 01:08:29,14.98329455,0.0002767,69.9983,244.9748,276.1372,83.9472,0.00018194,2.078e-05,0.0,0 STARLINK-5060,1 55413U 23014Y   24022.04756615  .00002078  00000-0  18194-3 0  9995,2 55413  69.9983 244.9748 0002767 276.1372  83.9472 14.98329455 54149,6950.195,96.107,573.983,570.136,0.0
55413.0,STARLINK-5060,PAYLOAD,2024-01-22 18:45:58,14.98328435,0.0002541,69.9987,243.1235,269.1858,90.901,3.3471e-05,3.06e-06,0.0,0 STARLINK-5060,1 55413U 23014Y   24022.78193167  .00000306  00000-0  33471-4 0  9991,2 55413  69.9987 243.1235 0002541 269.1858  90.9010 14.98328435 54251,6950.198,96.107,573.829,570.297,0.0
55413.0,STARLINK-5060,PAYLOAD,2024-01-22 21:58:14,14.98328863,0.0002512,69.9986,242.7867,266.5822,93.505,3.7021e-05,3.49e-06,0.0,0 STARLINK-5060,1 55413U 23014Y   24022.91545099  .00000349  00000-0  37021-4 0  9993,2 55413  69.9986 242.7867 0002512 266.5822  93.5050 14.98328863 55211,6950.196,96.107,573.807,570.316,0.0
55413.0,STARLINK-5060,PAYLOAD,2024-01-22 23:34:23,14.98328253,0.0002529,69.9985,242.6183,267.9944,92.0926,2.8277e-05,2.44e-06,0.0,0 STARLINK-5060,1 55413U 23014Y   24022.98221173  .00000244  00000-0  28277-4 0  9991,2 55413  69.9985 242.6183 0002529 267.9944  92.0926 14.98328253 55228,6950.198,96.107,573.821,570.306,0.0
55413.0,STARLINK-5060,PAYLOAD,2024-01-23 15:35:43,14.98336498,0.000254,69.9985,240.9351,266.7693,93.3175,3.1915e-05,2.88e-06,0.0,0 STARLINK-5060,1 55413U 23014Y   24023.64980560  .00000288  00000-0  31915-4 0  9998,2 55413  69.9985 240.9351 0002540 266.7693  93.3175 14.98336498 54383,6950.173,96.107,573.803,570.272,0.0
55413.0,STARLINK-5060,PAYLOAD,2024-01-23 22:00:15,14.98335818,0.0002557,69.9985,240.2618,268.0248,92.0619,2.1903e-05,1.68e-06,0.0,0 STARLINK-5060,1 55413U 23014Y   24023.91684498  .00000168  00000-0  21903-4 0  9992,2 55413  69.9985 240.2618 0002557 268.0248  92.0619 14.98335818 55364,6950.175,96.107,573.817,570.263,0.0
55413.0,STARLINK-5060,PAYLOAD,2024-01-24 20:26:10,14.98325084,0.0003004,69.9979,237.9036,272.787,87.2945,3.7033e-05,3.49e-06,0.0,0 STARLINK-5060,1 55413U 23014Y   24024.85150598  .00000349  00000-0  37033-4 0  9997,2 55413  69.9979 237.9036 0003004 272.7870  87.2945 14.98325084 54568,6950.208,96.107,574.161,569.985,0.0
55413.0,STARLINK-5060,PAYLOAD,2024-01-24 22:02:18,14.98325098,0.0002993,69.9979,237.7353,272.3252,87.7565,3.7023e-05,3.49e-06,0.0,0 STARLINK-5060,1 55413U 23014Y   24024.91826618  .00000349  00000-0  37023-4 0  9996,2 55413  69.9979 237.7353 0002993 272.3252  87.7565 14.98325098 55518,6950.208,96.107,574.153,569.993,0.0
55413.0,STARLINK-5060,PAYLOAD,2024-01-25 14:03:38,14.98330033,0.0002934,69.9984,236.0527,269.4904,90.5919,5.098e-05,5.15e-06,0.0,0 STARLINK-5060,1 55413U 23014Y   24025.58586511  .00000515  00000-0  50980-4 0  9997,2 55413  69.9984 236.0527 0002934 269.4904  90.5919 14.98330033 55616,6950.193,96.107,574.097,570.019,0.0
55413.0,STARLINK-5060,PAYLOAD,2024-01-25 20:28:10,14.98330789,0.0002854,69.9988,235.3791,266.3676,93.7157,7.2012e-05,7.66e-06,0.0,0 STARLINK-5060,1 55413U 23014Y   24025.85290435  .00000766  00000-0  72012-4 0  9992,2 55413  69.9988 235.3791 0002854 266.3676  93.7157 14.98330789 54715,6950.19,96.107,574.039,570.072,0.0
55413.0,STARLINK-5060,PAYLOAD,2024-01-25 22:04:18,14.98331227,0.0002854,69.9988,235.2108,266.344,93.7393,7.3768e-05,7.87e-06,0.0,0 STARLINK-5060,1 55413U 23014Y   24025.91966405  .00000787  00000-0  73768-4 0  9998,2 55413  69.9988 235.2108 0002854 266.3440  93.7393 14.98331227 55660,6950.189,96.107,574.038,570.071,0.0
55413.0,STARLINK-5060,PAYLOAD,2024-01-26 14:05:39,14.98337682,0.0003107,69.9986,233.5275,269.6604,90.4199,0.00011003,1.22e-05,0.0,0 STARLINK-5060,1 55413U 23014Y   24026.58726379  .00001220  00000-0  11003-3 0  9992,2 55413  69.9986 233.5275 0003107 269.6604  90.4199 14.98337682 55764,6950.169,96.107,574.194,569.875,0.0
55413.0,STARLINK-5060,PAYLOAD,2024-01-26 23:42:27,14.98340374,0.0003055,69.9989,232.5177,268.993,91.0879,0.00013264,1.49e-05,0.0,0 STARLINK-5060,1 55413U 23014Y   24026.98781939  .00001490  00000-0  13264-3 0  9999,2 55413  69.9989 232.5177 0003055 268.9930  91.0879 14.98340374 54889,6950.161,96.106,574.149,569.903,0.0
55413.0,STARLINK-5060,PAYLOAD,2024-01-27 14:07:39,14.98346255,0.0003091,69.999,231.0033,270.9168,89.1637,0.00011225,1.247e-05,0.0,0 STARLINK-5060,1 55413U 23014Y   24027.58865174  .00001247  00000-0  11225-3 0  9995,2 55413  69.9990 231.0033 0003091 270.9168  89.1637 14.98346255 55911,6950.143,96.106,574.156,569.859,0.0
